start=new Date('2022-03-25T00:00:00.000Z').valueOf();
sats=[{"MEAN_ANOMALY":"310.3341","NORAD_CAT_ID":"47880","SITE":"AFETR","APOAPSIS":"548.567","OBJECT_ID":"2021-021W","MEAN_ELEMENT_THEORY":"SGP4","BSTAR":"0.00021005000000","REF_FRAME":"TEME","TIME_SYSTEM":"UTC","DECAY_DATE":null,"REV_AT_EPOCH":"5813","MEAN_MOTION_DDOT":"0.0000000000000","FILE":"3373054","GP_ID":"199620151","ELEMENT_SET_NO":"999","EPOCH":"2022-03-24T21:29:50.090496","TLE_LINE1":"1 47880U 21021W   22083.89571864  .00002849  00000-0  21005-3 0  9990","TLE_LINE2":"2 47880  53.0564 292.0258 0001969  49.7820 310.3341 15.06403408 58138","RCS_SIZE":"LARGE","MEAN_MOTION_DOT":"0.00002849","OBJECT_NAME":"STARLINK-2337","CENTER_NAME":"EARTH","SEMIMAJOR_AXIS":"6925.338","CLASSIFICATION_TYPE":"U","OBJECT_TYPE":"PAYLOAD","ECCENTRICITY":"0.00019690","PERIAPSIS":"545.840","PERIOD":"95.592","RA_OF_ASC_NODE":"292.0258","ARG_OF_PERICENTER":"49.7820","MEAN_MOTION":"15.06403408","INCLINATION":"53.0564","LAUNCH_DATE":"2021-03-14","COUNTRY_CODE":"US","EPHEMERIS_TYPE":"0"},{"REV_AT_EPOCH":"5809","MEAN_MOTION_DDOT":"0.0000000000000","FILE":"3373054","GP_ID":"199619902","ELEMENT_SET_NO":"999","EPOCH":"2022-03-24T20:31:26.719968","TLE_LINE2":"2 47881  53.0555 292.2280 0001627  73.6794 286.4374 15.06405568 58096","TLE_LINE1":"1 47881U 21021X   22083.85517037  .00002208  00000-0  16704-3 0  9998","MEAN_ANOMALY":"286.4374","NORAD_CAT_ID":"47881","APOAPSIS":"548.323","SITE":"AFETR","BSTAR":"0.00016704000000","MEAN_ELEMENT_THEORY":"SGP4","OBJECT_ID":"2021-021X","REF_FRAME":"TEME","DECAY_DATE":null,"TIME_SYSTEM":"UTC","CLASSIFICATION_TYPE":"U","OBJECT_TYPE":"PAYLOAD","ECCENTRICITY":"0.00016270","PERIAPSIS":"546.070","RA_OF_ASC_NODE":"292.2280","PERIOD":"95.592","ARG_OF_PERICENTER":"73.6794","INCLINATION":"53.0555","MEAN_MOTION":"15.06405568","LAUNCH_DATE":"2021-03-14","COUNTRY_CODE":"US","EPHEMERIS_TYPE":"0","RCS_SIZE":"LARGE","MEAN_MOTION_DOT":"0.00002208","OBJECT_NAME":"STARLINK-2339","CENTER_NAME":"EARTH","SEMIMAJOR_AXIS":"6925.331"},{"EPOCH":"2022-03-24T23:06:41.790816","TLE_LINE2":"2 47882  53.0547 281.7353 0001343  79.8158 280.2982 15.06402682 57819","TLE_LINE1":"1 47882U 21021Y   22083.96298369  .00002023  00000-0  15464-3 0  9992","ELEMENT_SET_NO":"999","FILE":"3372879","GP_ID":"199594351","REV_AT_EPOCH":"5781","MEAN_MOTION_DDOT":"0.0000000000000","DECAY_DATE":null,"TIME_SYSTEM":"UTC","BSTAR":"0.00015464000000","MEAN_ELEMENT_THEORY":"SGP4","OBJECT_ID":"2021-021Y","REF_FRAME":"TEME","APOAPSIS":"548.135","SITE":"AFETR","MEAN_ANOMALY":"280.2982","NORAD_CAT_ID":"47882","LAUNCH_DATE":"2021-03-14","COUNTRY_CODE":"US","EPHEMERIS_TYPE":"0","ARG_OF_PERICENTER":"79.8158","INCLINATION":"53.0547","MEAN_MOTION":"15.06402682","OBJECT_TYPE":"PAYLOAD","ECCENTRICITY":"0.00013430","PERIAPSIS":"546.275","PERIOD":"95.592","RA_OF_ASC_NODE":"281.7353","CLASSIFICATION_TYPE":"U","CENTER_NAME":"EARTH","SEMIMAJOR_AXIS":"6925.340","OBJECT_NAME":"STARLINK-2340","RCS_SIZE":"LARGE","MEAN_MOTION_DOT":"0.00002023"},{"OBJECT_NAME":"STARLINK-2342","RCS_SIZE":"LARGE","MEAN_MOTION_DOT":"0.00000943","SEMIMAJOR_AXIS":"6925.354","CENTER_NAME":"EARTH","RA_OF_ASC_NODE":"287.1654","PERIOD":"95.592","ECCENTRICITY":"0.00016070","OBJECT_TYPE":"PAYLOAD","PERIAPSIS":"546.106","CLASSIFICATION_TYPE":"U","COUNTRY_CODE":"US","EPHEMERIS_TYPE":"0","LAUNCH_DATE":"2021-03-14","INCLINATION":"53.0532","MEAN_MOTION":"15.06398307","ARG_OF_PERICENTER":"70.2802","APOAPSIS":"548.332","SITE":"AFETR","NORAD_CAT_ID":"47883","MEAN_ANOMALY":"289.8360","DECAY_DATE":null,"TIME_SYSTEM":"UTC","REF_FRAME":"TEME","BSTAR":"0.00008218500000","MEAN_ELEMENT_THEORY":"SGP4","OBJECT_ID":"2021-021Z","GP_ID":"199620904","FILE":"3373054","MEAN_MOTION_DDOT":"0.0000000000000","REV_AT_EPOCH":"5837","TLE_LINE2":"2 47883  53.0532 287.1654 0001607  70.2802 289.8360 15.06398307 58377","TLE_LINE1":"1 47883U 21021Z   22083.86853409  .00000943  00000-0  82185-4 0  9998","EPOCH":"2022-03-24T20:50:41.345376","ELEMENT_SET_NO":"999"},{"ARG_OF_PERICENTER":"64.4900","INCLINATION":"53.0554","MEAN_MOTION":"15.06405504","LAUNCH_DATE":"2021-03-14","EPHEMERIS_TYPE":"0","COUNTRY_CODE":"US","CLASSIFICATION_TYPE":"U","OBJECT_TYPE":"PAYLOAD","ECCENTRICITY":"0.00015900","PERIAPSIS":"546.096","PERIOD":"95.592","RA_OF_ASC_NODE":"291.6469","CENTER_NAME":"EARTH","SEMIMAJOR_AXIS":"6925.332","MEAN_MOTION_DOT":"0.00001915","RCS_SIZE":"LARGE","OBJECT_NAME":"STARLINK-2343","ELEMENT_SET_NO":"999","EPOCH":"2022-03-24T23:37:12.853920","TLE_LINE2":"2 47884  53.0554 291.6469 0001590  64.4900 295.6254 15.06405504 57667","TLE_LINE1":"1 47884U 21021AA  22083.98417655  .00001915  00000-0  14741-3 0  9993","REV_AT_EPOCH":"5766","MEAN_MOTION_DDOT":"0.0000000000000","FILE":"3373037","GP_ID":"199598612","BSTAR":"0.00014741000000","OBJECT_ID":"2021-021AA","MEAN_ELEMENT_THEORY":"SGP4","REF_FRAME":"TEME","DECAY_DATE":null,"TIME_SYSTEM":"UTC","MEAN_ANOMALY":"295.6254","NORAD_CAT_ID":"47884","SITE":"AFETR","APOAPSIS":"548.298"},{"OBJECT_NAME":"STARLINK-2344","MEAN_MOTION_DOT":"0.00001600","RCS_SIZE":"LARGE","SEMIMAJOR_AXIS":"6925.350","CENTER_NAME":"EARTH","PERIOD":"95.592","RA_OF_ASC_NODE":"296.9631","OBJECT_TYPE":"PAYLOAD","ECCENTRICITY":"0.00017130","PERIAPSIS":"546.028","CLASSIFICATION_TYPE":"U","EPHEMERIS_TYPE":"0","COUNTRY_CODE":"US","LAUNCH_DATE":"2021-03-14","MEAN_MOTION":"15.06399688","INCLINATION":"53.0547","ARG_OF_PERICENTER":"70.0872","SITE":"AFETR","APOAPSIS":"548.401","NORAD_CAT_ID":"47885","MEAN_ANOMALY":"290.0302","TIME_SYSTEM":"UTC","DECAY_DATE":null,"REF_FRAME":"TEME","MEAN_ELEMENT_THEORY":"SGP4","OBJECT_ID":"2021-021AB","BSTAR":"0.00012632000000","GP_ID":"199620402","FILE":"3373054","MEAN_MOTION_DDOT":"0.0000000000000","REV_AT_EPOCH":"5822","TLE_LINE1":"1 47885U 21021AB  22083.91184986  .00001600  00000-0  12632-3 0  9993","TLE_LINE2":"2 47885  53.0547 296.9631 0001713  70.0872 290.0302 15.06399688 58228","EPOCH":"2022-03-24T21:53:03.827904","ELEMENT_SET_NO":"999"},{"SEMIMAJOR_AXIS":"6925.317","CENTER_NAME":"EARTH","MEAN_MOTION_DOT":"0.00004112","RCS_SIZE":"LARGE","OBJECT_NAME":"STARLINK-2345","INCLINATION":"53.0549","MEAN_MOTION":"15.06410225","ARG_OF_PERICENTER":"63.9498","COUNTRY_CODE":"US","EPHEMERIS_TYPE":"0","LAUNCH_DATE":"2021-03-14","CLASSIFICATION_TYPE":"U","PERIOD":"95.591","RA_OF_ASC_NODE":"287.2706","OBJECT_TYPE":"PAYLOAD","ECCENTRICITY":"0.00016160","PERIAPSIS":"546.063","REF_FRAME":"TEME","BSTAR":"0.00029471000000","MEAN_ELEMENT_THEORY":"SGP4","OBJECT_ID":"2021-021AC","DECAY_DATE":null,"TIME_SYSTEM":"UTC","NORAD_CAT_ID":"47886","MEAN_ANOMALY":"296.1657","APOAPSIS":"548.301","SITE":"AFETR","ELEMENT_SET_NO":"999","TLE_LINE2":"2 47886  53.0549 287.2706 0001616  63.9498 296.1657 15.06410225 58203","TLE_LINE1":"1 47886U 21021AC  22083.84547614  .00004112  00000-0  29471-3 0  9997","EPOCH":"2022-03-24T20:17:29.138496","MEAN_MOTION_DDOT":"0.0000000000000","REV_AT_EPOCH":"5820","GP_ID":"199620654","FILE":"3373054"},{"GP_ID":"199594346","FILE":"3372879","MEAN_MOTION_DDOT":"0.0000000000000","REV_AT_EPOCH":"5766","TLE_LINE2":"2 47887  53.0537 291.8576 0001254  71.1847 288.9278 15.06396204 57661","TLE_LINE1":"1 47887U 21021AD  22083.93626408  .00001276  00000-0  10455-3 0  9997","EPOCH":"2022-03-24T22:28:13.216512","ELEMENT_SET_NO":"999","APOAPSIS":"548.094","SITE":"AFETR","NORAD_CAT_ID":"47887","MEAN_ANOMALY":"288.9278","DECAY_DATE":null,"TIME_SYSTEM":"UTC","REF_FRAME":"TEME","BSTAR":"0.00010455000000","OBJECT_ID":"2021-021AD","MEAN_ELEMENT_THEORY":"SGP4","PERIOD":"95.592","RA_OF_ASC_NODE":"291.8576","OBJECT_TYPE":"PAYLOAD","ECCENTRICITY":"0.00012540","PERIAPSIS":"546.357","CLASSIFICATION_TYPE":"U","EPHEMERIS_TYPE":"0","COUNTRY_CODE":"US","LAUNCH_DATE":"2021-03-14","INCLINATION":"53.0537","MEAN_MOTION":"15.06396204","ARG_OF_PERICENTER":"71.1847","OBJECT_NAME":"STARLINK-2346","RCS_SIZE":"LARGE","MEAN_MOTION_DOT":"0.00001276","SEMIMAJOR_AXIS":"6925.360","CENTER_NAME":"EARTH"},{"MEAN_MOTION":"15.06406084","INCLINATION":"53.0555","ARG_OF_PERICENTER":"59.5986","EPHEMERIS_TYPE":"0","COUNTRY_CODE":"US","LAUNCH_DATE":"2021-03-14","CLASSIFICATION_TYPE":"U","PERIOD":"95.592","RA_OF_ASC_NODE":"282.3512","ECCENTRICITY":"0.00015650","OBJECT_TYPE":"PAYLOAD","PERIAPSIS":"546.111","SEMIMAJOR_AXIS":"6925.330","CENTER_NAME":"EARTH","RCS_SIZE":"LARGE","MEAN_MOTION_DOT":"0.00001546","OBJECT_NAME":"STARLINK-2348","ELEMENT_SET_NO":"999","TLE_LINE1":"1 47888U 21021AE  22083.82660303  .00001546  00000-0  12266-3 0  9990","TLE_LINE2":"2 47888  53.0555 282.3512 0001565  59.5986 300.5157 15.06406084 58279","EPOCH":"2022-03-24T19:50:18.501792","MEAN_MOTION_DDOT":"0.0000000000000","REV_AT_EPOCH":"5827","GP_ID":"199620152","FILE":"3373054","REF_FRAME":"TEME","OBJECT_ID":"2021-021AE","MEAN_ELEMENT_THEORY":"SGP4","BSTAR":"0.00012266000000","TIME_SYSTEM":"UTC","DECAY_DATE":null,"NORAD_CAT_ID":"47888","MEAN_ANOMALY":"300.5157","SITE":"AFETR","APOAPSIS":"548.279"},{"SEMIMAJOR_AXIS":"6925.344","CENTER_NAME":"EARTH","MEAN_MOTION_DOT":"0.00001766","RCS_SIZE":"LARGE","OBJECT_NAME":"STARLINK-2349","INCLINATION":"53.0540","MEAN_MOTION":"15.06401503","ARG_OF_PERICENTER":"58.8065","COUNTRY_CODE":"US","EPHEMERIS_TYPE":"0","LAUNCH_DATE":"2021-03-14","CLASSIFICATION_TYPE":"U","PERIOD":"95.592","RA_OF_ASC_NODE":"282.0063","OBJECT_TYPE":"PAYLOAD","PERIAPSIS":"545.826","ECCENTRICITY":"0.00019970","REF_FRAME":"TEME","BSTAR":"0.00013740000000","OBJECT_ID":"2021-021AF","MEAN_ELEMENT_THEORY":"SGP4","DECAY_DATE":null,"TIME_SYSTEM":"UTC","NORAD_CAT_ID":"47889","MEAN_ANOMALY":"301.3120","APOAPSIS":"548.592","SITE":"AFETR","ELEMENT_SET_NO":"999","TLE_LINE2":"2 47889  53.0540 282.0063 0001997  58.8065 301.3120 15.06401503 57809","TLE_LINE1":"1 47889U 21021AF  22083.90401213  .00001766  00000-0  13740-3 0  9995","EPOCH":"2022-03-24T21:41:46.648032","MEAN_MOTION_DDOT":"0.0000000000000","REV_AT_EPOCH":"5780","GP_ID":"199594349","FILE":"3372879"}];
